ORBCOMM FM37 [-]        
1 33064U 08031E   23301.43454587  .00002464  00000+0  38977-3 0  9999
2 33064  48.4405 294.7880 0006332 335.0044 181.4163 14.75300382825668
ORBCOMM FM40 [-]        
1 33065U 08031F   23301.72731986  .00003050  00000+0  46358-3 0  9997
2 33065  48.4429 284.4797 0007654 344.8591 185.8075 14.76382644826169
VESSELSAT 1 [-]         
1 37840U 11058C   23301.82815194  .00000441  00000+0  96487-4 0  9990
2 37840  19.9611 107.6563 0013787  97.0852 263.1120 14.11076164622057
ORBCOMM FM109 [+]       
1 40086U 14040A   23301.31790236  .00001037  00000+0  27090-3 0  9998
2 40086  47.0046 314.9695 0000943  70.2531 289.8455 14.56026449493875
ORBCOMM FM107 [+]       
1 40087U 14040B   23301.35212058  .00001209  00000+0  30944-3 0  9997
2 40087  47.0064 315.7436 0001227 359.5533   0.5351 14.56029874493956
ORBCOMM FM106 [-]       
1 40088U 14040C   23300.93991775  .00001366  00000+0  27856-3 0  9993
2 40088  47.0605 185.0562 0018107 174.8105 185.2975 14.66156421495599
ORBCOMM FM111 [-]       
1 40089U 14040D   23301.45893633  .00003236  00000+0  44360-3 0  9993
2 40089  47.0034 106.1164 0034213 223.5727 136.2464 14.80227801501501
ORBCOMM FM104 [-]       
1 40090U 14040E   23301.40231388  .00000901  00000+0  24776-3 0  9998
2 40090  47.0069 342.2847 0017309 353.4698   6.5958 14.54577805493532
